COSMOS 2576             
1 59773U 24092A   26068.82603826  .00015211  00000+0  56283-3 0  9991
2 59773  97.4253 186.0053 0005946 159.7731 200.3745 15.27760963101271
STARLINK-33910          
1 63916U 25095AC  26068.30808651  .00026813  00000+0  98057-3 0  9990
2 63916  42.9998 178.0025 0001862 141.8433 218.2551 15.27571496 47723
